{"type": "FeatureCollection", "features": [ {"type": "Feature", "properties": {"norad_id": 30121, "name": "FENGYUN 1C DEB", "group": "fengyun-1c-debris", "lat": 37.44737026540357, "lon": -170.54022000617385, "alt_km": 738.2365961261494, "timestamp": "2025-12-06T22:38:43.002330+00:00", "meta": {"OBJECT_NAME": "FENGYUN 1C DEB", "OBJECT_ID": "1999-025SA", "EPOCH": "2025-12-06T15:50:58.445088", "MEAN_MOTION": 14.39878035, "ECCENTRICITY": 0.0031642, "INCLINATION": 102.1649, "RA_OF_ASC_NODE": 359.5502, "ARG_OF_PERICENTER": 180.4354, "MEAN_ANOMALY": 294.227, "EPHEMERIS_TYPE": 0, "CLASSIFICATION_TYPE": "U", "NORAD_CAT_ID": 30121, "ELEMENT_SET_NO": 999, "REV_AT_EPOCH": 97452, "BSTAR": 0.0035813674, "MEAN_MOTION_DOT": 0.00011266, "MEAN_MOTION_DDOT": 0}, "tle": {"line1": "1 30121U 99025SA  25340.66039867  .00011266  00000+0  35814-2 0  9999", "line2": "2 30121 102.1649 359.5502 0031642 180.4354 294.2270 14.39878035974523"}}, "geometry": {"type": "Point", "coordinates": [-170.54022000617385, 37.44737026540357]}}, {"type": "Feature", "properties": {"norad_id": 30123, "name": "FENGYUN 1C DEB", "group": "fengyun-1c-debris", "lat": -35.07568829247334, "lon": 97.71669694101207, "alt_km": 872.8944024128223, "timestamp": "2025-12-06T22:38:43.002340+00:00", "meta": {"OBJECT_NAME": "FENGYUN 1C DEB", "OBJECT_ID": "1999-025SC", "EPOCH": "2025-12-06T06:30:17.515584", "MEAN_MOTION": 14.25891995, "ECCENTRICITY": 0.02304438, "INCLINATION": 96.9264, "RA_OF_ASC_NODE": 282.0805, "ARG_OF_PERICENTER": 104.4171, "MEAN_ANOMALY": 258.2708, "EPHEMERIS_TYPE": 0, "CLASSIFICATION_TYPE": "U", "NORAD_CAT_ID": 30123, "ELEMENT_SET_NO": 999, "REV_AT_EPOCH": 97155, "BSTAR": 0.0022399234, "MEAN_MOTION_DOT": 7.027e-05, "MEAN_MOTION_DDOT": 0}, "tle": {"line1": "1 30123U 99025SC  25340.27103606  .00007027  00000+0  22399-2 0  9995", "line2": "2 30123  96.9264 282.0805 0230443 104.4171 258.2708 14.25891995971558"}}, "geometry": {"type": "Point", "coordinates": [97.71669694101207, -35.07568829247334]}}, {"type": "Feature", "properties": {"norad_id": 30124, "name": "FENGYUN 1C DEB", "group": "fengyun-1c-debris", "lat": 17.55252130397073, "lon": 31.76614128156906, "alt_km": 869.4027138625925, "timestamp": "2025-12-06T22:38:43.002350+00:00", "meta": {"OBJECT_NAME": "FENGYUN 1C DEB", "OBJECT_ID": "1999-025SD", "EPOCH": "2025-12-06T02:19:33.528576", "MEAN_MOTION": 14.14193268, "ECCENTRICITY": 0.01436371, "INCLINATION": 99.1319, "RA_OF_ASC_NODE": 33.8172, "ARG_OF_PERICENTER": 124.4534, "MEAN_ANOMALY": 267.1038, "EPHEMERIS_TYPE": 0, "CLASSIFICATION_TYPE": "U", "NORAD_CAT_ID": 30124, "ELEMENT_SET_NO": 999, "REV_AT_EPOCH": 96821, "BSTAR": 0.0017996676, "MEAN_MOTION_DOT": 3.745e-05, "MEAN_MOTION_DDOT": 0}, "tle": {"line1": "1 30124U 99025SD  25340.09691584  .00003745  00000+0  17997-2 0  9994", "line2": "2 30124  99.1319  33.8172 0143637 124.4534 267.1038 14.14193268968217"}}, "geometry": {"type": "Point", "coordinates": [31.76614128156906, 17.55252130397073]}}, {"type": "Feature", "properties": {"norad_id": 30125, "name": "FENGYUN 1C DEB", "group": "fengyun-1c-debris", "lat": -1.3329340564768872, "lon": 79.9918733252453, "alt_km": 573.1608142091545, "timestamp": "2025-12-06T22:38:43.002360+00:00", "meta": {"OBJECT_NAME": "FENGYUN 1C DEB", "OBJECT_ID": "1999-025SE", "EPOCH": "2025-12-06T12:34:52.330656", "MEAN_MOTION": 14.2260371, "ECCENTRICITY": 0.03427711, "INCLINATION": 98.7241, "RA_OF_ASC_NODE": 79.3711, "ARG_OF_PERICENTER": 2.2161, "MEAN_ANOMALY": 10.3384, "EPHEMERIS_TYPE": 0, "CLASSIFICATION_TYPE": "U", "NORAD_CAT_ID": 30125, "ELEMENT_SET_NO": 999, "REV_AT_EPOCH": 96833, "BSTAR": 0.0012294403, "MEAN_MOTION_DOT": 4.982e-05, "MEAN_MOTION_DDOT": 0}, "tle": {"line1": "1 30125U 99025SE  25340.52421679  .00004982  00000+0  12294-2 0  9998", "line2": "2 30125  98.7241  79.3711 0342771   2.2161  10.3384 14.22603710968332"}}, "geometry": {"type": "Point", "coordinates": [79.9918733252453, -1.3329340564768872]}}, {"type": "Feature", "properties": {"norad_id": 30127, "name": "FENGYUN 1C DEB", "group": "fengyun-1c-debris", "lat": 81.73948863737787, "lon": 113.98520527662534, "alt_km": 698.0150397239922, "timestamp": "2025-12-06T22:38:43.002370+00:00", "meta": {"OBJECT_NAME": "FENGYUN 1C DEB", "OBJECT_ID": "1999-025SG", "EPOCH": "2025-12-06T13:53:08.963808", "MEAN_MOTION": 14.37864665, "ECCENTRICITY": 0.00847649, "INCLINATION": 98.2064, "RA_OF_ASC_NODE": 197.3582, "ARG_OF_PERICENTER": 97.6708, "MEAN_ANOMALY": 263.4117, "EPHEMERIS_TYPE": 0, "CLASSIFICATION_TYPE": "U", "NORAD_CAT_ID": 30127, "ELEMENT_SET_NO": 999, "REV_AT_EPOCH": 97147, "BSTAR": 0.0039207737, "MEAN_MOTION_DOT": 0.00012307, "MEAN_MOTION_DDOT": 0}, "tle": {"line1": "1 30127U 99025SG  25340.57857597  .00012307  00000+0  39208-2 0  9991", "line2": "2 30127  98.2064 197.3582 0084764  97.6708 263.4117 14.37864665971477"}}, "geometry": {"type": "Point", "coordinates": [113.98520527662534, 81.73948863737787]}}, {"type": "Feature", "properties": {"norad_id": 30128, "name": "FENGYUN 1C DEB", "group": "fengyun-1c-debris", "lat": -77.52773546193416, "lon": 127.08225244938241, "alt_km": 779.7296235022122, "timestamp": "2025-12-06T22:38:43.002380+00:00", "meta": {"OBJECT_NAME": "FENGYUN 1C DEB", "OBJECT_ID": "1999-025SH", "EPOCH": "2025-12-06T13:44:17.671200", "MEAN_MOTION": 14.45945458, "ECCENTRICITY": 0.01074512, "INCLINATION": 96.9795, "RA_OF_ASC_NODE": 340.4071, "ARG_OF_PERICENTER": 144.2704, "MEAN_ANOMALY": 343.5369, "EPHEMERIS_TYPE": 0, "CLASSIFICATION_TYPE": "U", "NORAD_CAT_ID": 30128, "ELEMENT_SET_NO": 999, "REV_AT_EPOCH": 97222, "BSTAR": 0.0039157047, "MEAN_MOTION_DOT": 0.00014958, "MEAN_MOTION_DDOT": 0}, "tle": {"line1": "1 30128U 99025SH  25340.57242675  .00014958  00000+0  39157-2 0  9994", "line2": "2 30128  96.9795 340.4071 0107451 144.2704 343.5369 14.45945458972224"}}, "geometry": {"type": "Point", "coordinates": [127.08225244938241, -77.52773546193416]}}, {"type": "Feature", "properties": {"norad_id": 30129, "name": "FENGYUN 1C DEB", "group": "fengyun-1c-debris", "lat": 58.1295748319616, "lon": -89.62882237252543, "alt_km": 792.5035876704005, "timestamp": "2025-12-06T22:38:43.002390+00:00", "meta": {"OBJECT_NAME": "FENGYUN 1C DEB", "OBJECT_ID": "1999-025SJ", "EPOCH": "2025-12-05T19:14:52.884672", "MEAN_MOTION": 14.01560159, "ECCENTRICITY": 0.01887002, "INCLINATION": 98.0262, "RA_OF_ASC_NODE": 282.4828, "ARG_OF_PERICENTER": 112.023, "MEAN_ANOMALY": 312.1323, "EPHEMERIS_TYPE": 0, "CLASSIFICATION_TYPE": "U", "NORAD_CAT_ID": 30129, "ELEMENT_SET_NO": 999, "REV_AT_EPOCH": 96381, "BSTAR": 0.00069538669, "MEAN_MOTION_DOT": 1.195e-05, "MEAN_MOTION_DDOT": 0}, "tle": {"line1": "1 30129U 99025SJ  25339.80200098  .00001195  00000+0  69539-3 0  9999", "line2": "2 30129  98.0262 282.4828 0188700 112.0230 312.1323 14.01560159963815"}}, "geometry": {"type": "Point", "coordinates": [-89.62882237252543, 58.1295748319616]}}, {"type": "Feature", "properties": {"norad_id": 30131, "name": "FENGYUN 1C DEB", "group": "fengyun-1c-debris", "lat": 77.55904087169304, "lon": 26.19202768956397, "alt_km": 817.4872594434391, "timestamp": "2025-12-06T22:38:43.002426+00:00", "meta": {"OBJECT_NAME": "FENGYUN 1C DEB", "OBJECT_ID": "1999-025SL", "EPOCH": "2025-12-06T12:12:27.842112", "MEAN_MOTION": 14.21075673, "ECCENTRICITY": 0.00832576, "INCLINATION": 99.0754, "RA_OF_ASC_NODE": 72.173, "ARG_OF_PERICENTER": 176.1716, "MEAN_ANOMALY": 202.6097, "EPHEMERIS_TYPE": 0, "CLASSIFICATION_TYPE": "U", "NORAD_CAT_ID": 30131, "ELEMENT_SET_NO": 999, "REV_AT_EPOCH": 96600, "BSTAR": 0.004959709, "MEAN_MOTION_DOT": 0.00011121, "MEAN_MOTION_DDOT": 0}, "tle": {"line1": "1 30131U 99025SL  25340.50865558  .00011121  00000+0  49597-2 0  9990", "line2": "2 30131  99.0754  72.1730 0083257 176.1716 202.6097 14.21075673966001"}}, "geometry": {"type": "Point", "coordinates": [26.19202768956397, 77.55904087169304]}}, {"type": "Feature", "properties": {"norad_id": 30132, "name": "FENGYUN 1C DEB", "group": "fengyun-1c-debris", "lat": -76.18702300010555, "lon": 70.94541611521512, "alt_km": 993.4880159671447, "timestamp": "2025-12-06T22:38:43.002437+00:00", "meta": {"OBJECT_NAME": "FENGYUN 1C DEB", "OBJECT_ID": "1999-025SM", "EPOCH": "2025-12-05T19:52:50.044800", "MEAN_MOTION": 13.94837527, "ECCENTRICITY": 0.01057525, "INCLINATION": 99.5763, "RA_OF_ASC_NODE": 293.1525, "ARG_OF_PERICENTER": 68.1831, "MEAN_ANOMALY": 355.2417, "EPHEMERIS_TYPE": 0, "CLASSIFICATION_TYPE": "U", "NORAD_CAT_ID": 30132, "ELEMENT_SET_NO": 999, "REV_AT_EPOCH": 95993, "BSTAR": 0.00084243677, "MEAN_MOTION_DOT": 1.138e-05, "MEAN_MOTION_DDOT": 0}, "tle": {"line1": "1 30132U 99025SM  25339.82835700  .00001138  00000+0  84244-3 0  9996", "line2": "2 30132  99.5763 293.1525 0105752  68.1831 355.2417 13.94837527959935"}}, "geometry": {"type": "Point", "coordinates": [70.94541611521512, -76.18702300010555]}}, {"type": "Feature", "properties": {"norad_id": 30133, "name": "FENGYUN 1C DEB", "group": "fengyun-1c-debris", "lat": -76.60634637100775, "lon": -69.847689438809, "alt_km": 819.0095749264083, "timestamp": "2025-12-06T22:38:43.002447+00:00", "meta": {"OBJECT_NAME": "FENGYUN 1C DEB", "OBJECT_ID": "1999-025SN", "EPOCH": "2025-12-05T18:09:11.409120", "MEAN_MOTION": 14.06617415, "ECCENTRICITY": 0.00855832, "INCLINATION": 98.3239, "RA_OF_ASC_NODE": 146.9996, "ARG_OF_PERICENTER": 280.2787, "MEAN_ANOMALY": 91.1963, "EPHEMERIS_TYPE": 0, "CLASSIFICATION_TYPE": "U", "NORAD_CAT_ID": 30133, "ELEMENT_SET_NO": 999, "REV_AT_EPOCH": 96280, "BSTAR": 0.0029266693, "MEAN_MOTION_DOT": 4.978e-05, "MEAN_MOTION_DDOT": 0}, "tle": {"line1": "1 30133U 99025SN  25339.75638205  .00004978  00000+0  29267-2 0  9998", "line2": "2 30133  98.3239 146.9996 0085583 280.2787  91.1963 14.06617415962802"}}, "geometry": {"type": "Point", "coordinates": [-69.847689438809, -76.60634637100775]}}]}